NORAD_CAT_ID,OBJECT_NAME,OBJECT_TYPE,EPOCH,MEAN_MOTION,ECCENTRICITY,INCLINATION,RA_OF_ASC_NODE,ARG_OF_PERICENTER,MEAN_ANOMALY,BSTAR,MEAN_MOTION_DOT,MEAN_MOTION_DDOT,TLE_LINE0,TLE_LINE1,TLE_LINE2,SEMIMAJOR_AXIS,PERIOD,APOGEE,PERIGEE,DECAYED
49736.0,STARLINK-3148,PAYLOAD,2022-09-27 20:22:15,15.088479,0.0001834,53.2181,40.2923,48.5946,311.5204,3.587e-05,2.83e-06,0.0,0 STARLINK-3148,1 49736U 21115N   22270.84879118  .00000283  00000-0  35870-4 0  9998,2 49736  53.2181  40.2923 0001834  48.5946 311.5204 15.08847900 45493,6917.856,95.437,540.99,538.453,0.0
49736.0,STARLINK-3148,PAYLOAD,2022-09-28 12:16:08,15.08829328,0.0001774999999999,53.2187,37.3201,47.4952,312.619,4.9912e-05,5.06e-06,0.0,0 STARLINK-3148,1 49736U 21115N   22271.51120428  .00000506  00000-0  49912-4 0  9996,2 49736  53.2187  37.3201 0001775  47.4952 312.6190 15.08829328 46709,6917.913000000001,95.438,541.006,538.55,0.0
49736.0,STARLINK-3148,PAYLOAD,2022-09-28 18:37:40,15.08838806,0.0001847,53.2185,36.1294,49.06399999999999,311.0512,8.4156e-05,1.051e-05,0.0,0 STARLINK-3148,1 49736U 21115N   22271.77615930  .00001051  00000-0  84156-4 0  9996,2 49736  53.2185  36.1294 0001847  49.0640 311.0512 15.08838806 45631,6917.884,95.438,541.0269999999998,538.471,0.0
49736.0,STARLINK-3148,PAYLOAD,2022-09-29 12:06:54,15.08837601,0.0001854,53.2185,32.8584,49.3946,310.7207,0.00011532,1.548e-05,0.0,0 STARLINK-3148,1 49736U 21115N   22272.50480261  .00001548  00000-0  11532-3 0  9993,2 49736  53.2185  32.8584 0001854  49.3946 310.7207 15.08837601 45747,6917.888000000001,95.438,541.035,538.47,0.0
49736.0,STARLINK-3148,PAYLOAD,2022-09-29 18:28:27,15.08839793,0.0001885,53.218,31.669,49.1447,310.9708,0.00011727,1.579e-05,0.0,0 STARLINK-3148,1 49736U 21115N   22272.76976126  .00001579  00000-0  11727-3 0  9991,2 49736  53.2180  31.6690 0001885  49.1447 310.9708 15.08839793 45781,6917.880999999999,95.438,541.05,538.442,0.0
49736.0,STARLINK-3148,PAYLOAD,2022-09-30 00:50:00,15.08831401,0.0001911,53.2181,30.4795,48.4206,311.6949,1.5472e-05,-4.2e-07,0.0,0 STARLINK-3148,1 49736U 21115N   22273.03472625 -.00000042  00000-0  15472-4 0  9994,2 49736  53.2181  30.4795 0001911  48.4206 311.6949 15.08831401 46931,6917.906999999997,95.438,541.094,538.45,0.0
49736.0,STARLINK-3148,PAYLOAD,2022-09-30 10:22:18,15.08841563,0.0001584,53.2187,28.6948,42.3109,317.8005,0.00012157,1.647e-05,0.0,0 STARLINK-3148,1 49736U 21115N   22273.43216308  .00001647  00000-0  12157-3 0  9999,2 49736  53.2187  28.6948 0001584  42.3109 317.8005 15.08841563 45881,6917.876,95.437,540.836,538.645,0.0
49736.0,STARLINK-3148,PAYLOAD,2022-09-30 16:43:50,15.08852416,0.0001771999999999,53.2181,27.5059,47.7115,312.4027,0.00025734,3.811e-05,0.0,0 STARLINK-3148,1 49736U 21115N   22273.69711583  .00003811  00000-0  25734-3 0  9992,2 49736  53.2181  27.5059 0001772  47.7115 312.4027 15.08852416 47034,6917.842,95.437,540.933,538.482,0.0
49736.0,STARLINK-3148,PAYLOAD,2022-09-30 18:19:13,15.08855809,0.0001759,53.218,27.2083,45.8817,314.2319,0.00031036,4.657e-05,0.0,0 STARLINK-3148,1 49736U 21115N   22273.76335422  .00004657  00000-0  31036-3 0  9995,2 49736  53.2180  27.2083 0001759  45.8817 314.2319 15.08855809 45930,6917.831999999999,95.437,540.914,538.48,0.0
49736.0,STARLINK-3148,PAYLOAD,2022-10-01 13:23:51,15.08849829,0.0001751,53.2176,23.6404,42.9021,317.2107,0.00016656,2.364e-05,0.0,0 STARLINK-3148,1 49736U 21115N   22274.55823264  .00002364  00000-0  16656-3 0  9993,2 49736  53.2176  23.6404 0001751  42.9021 317.2107 15.08849829 47169,6917.85,95.437,540.927,538.504,0.0
49736.0,STARLINK-3148,PAYLOAD,2022-10-01 19:45:23,15.08856742,0.0001753,53.2168,22.4503,42.4842,317.6285,0.00031548,4.739e-05,0.0,0 STARLINK-3148,1 49736U 21115N   22274.82318891  .00004739  00000-0  31548-3 0  9993,2 49736  53.2168  22.4503 0001753  42.4842 317.6285 15.08856742 46099,6917.829000000002,95.436,540.9069999999998,538.482,0.0
49736.0,STARLINK-3148,PAYLOAD,2022-10-02 13:14:38,15.08837639,0.0001768,53.2177,19.1804,45.0552,315.0583,-6.274899999999999e-05,-1.287e-05,0.0,0 STARLINK-3148,1 49736U 21115N   22275.55183543 -.00001287  00000-0 -62749-4 0  9993,2 49736  53.2177  19.1804 0001768  45.0552 315.0583 15.08837639 46209,6917.888000000001,95.438,540.976,538.53,0.0
49736.0,STARLINK-3148,PAYLOAD,2022-10-02 18:00:47,15.08844517,0.0001834,53.2177,18.2879,40.7621,319.3508,8.6503e-05,1.089e-05,0.0,0 STARLINK-3148,1 49736U 21115N   22275.75055380  .00001089  00000-0  86503-4 0  9994,2 49736  53.2177  18.2879 0001834  40.7621 319.3508 15.08844517 46234,6917.8669999999975,95.437,541.0,538.4630000000002,0.0
49736.0,STARLINK-3148,PAYLOAD,2022-10-03 00:22:20,15.08851217,0.0001776999999999,53.2176,17.0987,42.569,317.5440000000001,0.00044206,6.756e-05,0.0,0 STARLINK-3148,1 49736U 21115N   22276.01551225  .00006756  00000-0  44206-3 0  9992,2 49736  53.2176  17.0987 0001777  42.5690 317.5440 15.08851217 47389,6917.846,95.437,540.94,538.482,0.0
49736.0,STARLINK-3148,PAYLOAD,2022-10-03 13:05:25,15.08852602,0.0001955,53.2173,14.7196,42.3068,317.8075,0.0007714999999999,0.00012016,0.0,0 STARLINK-3148,1 49736U 21115N   22276.54543410  .00012016  00000-0  77150-3 0  9997,2 49736  53.2173  14.7196 0001955  42.3068 317.8075 15.08852602 46359,6917.842,95.437,541.059,538.354,0.0
49736.0,STARLINK-3148,PAYLOAD,2022-10-03 17:51:34,15.08868672,0.0002008999999999,53.2175,13.8274,43.6461,316.4689,0.0012021,0.0001891,0.0,0 STARLINK-3148,1 49736U 21115N   22276.74415006  .00018910  00000-0  12021-2 0  9992,2 49736  53.2175  13.8274 0002009  43.6461 316.4689 15.08868672 46383,6917.793000000002,95.436,541.048,538.268,0.0
49736.0,STARLINK-3148,PAYLOAD,2022-10-04 12:56:11,15.08849716,0.0001896,53.2178,10.2592,34.72,325.3915,0.00010211,1.338e-05,0.0,0 STARLINK-3148,1 49736U 21115N   22277.53902518  .00001338  00000-0  10211-3 0  9995,2 49736  53.2178  10.2592 0001896  34.7200 325.3915 15.08849716 47611,6917.851,95.437,541.0269999999998,538.404,0.0
49736.0,STARLINK-3148,PAYLOAD,2022-10-05 11:11:36,15.08832075,0.0001921,53.2178,6.0955,36.8468,323.2656,-4.41e-05,-9.9e-06,0.0,0 STARLINK-3148,1 49736U 21115N   22278.46639204 -.00000990  00000-0 -44100-4 0  9997,2 49736  53.2178   6.0955 0001921  36.8468 323.2656 15.08832075 46646,6917.905,95.438,541.099,538.441,0.0
49736.0,STARLINK-3148,PAYLOAD,2022-10-06 12:37:46,15.08845484,0.0002038,53.2183,1.3394,37.8118,322.3017,0.00029589,4.425e-05,0.0,0 STARLINK-3148,1 49736U 21115N   22279.52623147  .00004425  00000-0  29589-3 0  9992,2 49736  53.2183   1.3394 0002038  37.8118 322.3017 15.08845484 46807,6917.864000000001,95.437,541.138,538.319,0.0
49736.0,STARLINK-3148,PAYLOAD,2022-10-06 17:23:55,15.08852537,0.0002049,53.2176,0.4461,35.7834,324.3296,0.00041715,6.359e-05,0.0,0 STARLINK-3148,1 49736U 21115N   22279.72494900  .00006359  00000-0  41715-3 0  9990,2 49736  53.2176   0.4461 0002049  35.7834 324.3296 15.08852537 46839,6917.842,95.437,541.125,538.29,0.0
49736.0,STARLINK-3148,PAYLOAD,2022-10-06 22:10:04,15.08850802,0.0002026999999999,53.2178,359.55300000000005,36.8893,323.2238,0.0003441999999999,5.196e-05,0.0,0 STARLINK-3148,1 49736U 21115N   22279.92366763  .00005196  00000-0  34420-3 0  9990,2 49736  53.2178 359.5530 0002027  36.8893 323.2238 15.08850802 47972,6917.847,95.437,541.115,538.31,0.0
49736.0,STARLINK-3148,PAYLOAD,2022-10-07 10:53:09,15.08853632,0.0002019,53.2171,357.1754,38.9124,321.2013,0.00038886,5.908e-05,0.0,0 STARLINK-3148,1 49736U 21115N   22280.45358697  .00005908  00000-0  38886-3 0  9998,2 49736  53.2171 357.1754 0002019  38.9124 321.2013 15.08853632 46947,6917.839,95.437,541.1,538.307,0.0
49736.0,STARLINK-3148,PAYLOAD,2022-10-08 04:22:24,15.08840523,0.0002141,53.2171,353.9072,45.7758,314.341,-9.4119e-05,-1.786e-05,0.0,0 STARLINK-3148,1 49736U 21115N   22281.18222647 -.00001786  00000-0 -94119-4 0  9998,2 49736  53.2171 353.9072 0002141  45.7758 314.3410 15.08840523 48164,6917.879,95.438,541.225,538.263,0.0
49736.0,STARLINK-3148,PAYLOAD,2022-10-08 12:19:20,15.08823793,0.0002005,53.2167,352.4183,37.6991,322.4141,-0.00030365,-5.115e-05,0.0,0 STARLINK-3148,1 49736U 21115N   22281.51343700 -.00005115  00000-0 -30365-3 0  9991,2 49736  53.2167 352.4183 0002005  37.6991 322.4141 15.08823793 48211,6917.93,95.439,541.182,538.408,0.0
49736.0,STARLINK-3148,PAYLOAD,2022-10-09 05:48:35,15.08834358,0.0002055,53.2163,349.1471,37.4692,322.6443,9.4923e-05,1.223e-05,0.0,0 STARLINK-3148,1 49736U 21115N   22282.24207890  .00001223  00000-0  94923-4 0  9996,2 49736  53.2163 349.1471 0002055  37.4692 322.6443 15.08834358 48329,6917.898,95.438,541.184,538.341,0.0
49736.0,STARLINK-3148,PAYLOAD,2022-10-09 12:10:08,15.08840612,0.0002165999999999,53.217,347.9581,42.9292,317.1869,0.00043975,6.718e-05,0.0,0 STARLINK-3148,1 49736U 21115N   22282.50704028  .00006718  00000-0  43975-3 0  9994,2 49736  53.2170 347.9581 0002166  42.9292 317.1869 15.08840612 47257,6917.879,95.438,541.242,538.245,0.0
49736.0,STARLINK-3148,PAYLOAD,2022-10-10 10:25:32,15.08838118,0.0002105,53.216,343.7946,32.7668,327.3455,0.00026631,3.953e-05,0.0,0 STARLINK-3148,1 49736U 21115N   22283.43440199  .00003953  00000-0  26631-3 0  9991,2 49736  53.2160 343.7946 0002105  32.7668 327.3455 15.08838118 48503,6917.886,95.438,541.207,538.295,0.0
49736.0,STARLINK-3148,PAYLOAD,2022-10-11 10:16:19,15.08822521,0.0002246,53.2154,339.3349,30.045,330.06699999999995,-0.00028844,-4.874e-05,0.0,0 STARLINK-3148,1 49736U 21115N   22284.42800749 -.00004874  00000-0 -28844-3 0  9995,2 49736  53.2154 339.3349 0002246  30.0450 330.0670 15.08822521 48657,6917.934,95.439,541.3530000000002,538.245,0.0
49736.0,STARLINK-3148,PAYLOAD,2022-10-12 03:45:34,15.08830933,0.0001956999999999,53.2154,336.0614,26.8583,333.251,4.5187e-05,4.31e-06,0.0,0 STARLINK-3148,1 49736U 21115N   22285.15665018  .00000431  00000-0  45187-4 0  9997,2 49736  53.2154 336.0614 0001957  26.8583 333.2510 15.08830933 48760,6917.908,95.438,541.127,538.419,0.0
